{"type": "FeatureCollection", "features": [ {"type": "Feature", "properties": {"norad_id": 29843, "name": "FENGYUN 1C DEB", "group": "fengyun-1c-debris", "lat": 11.748494636116813, "lon": 18.430890945251974, "alt_km": 796.6303367731334, "timestamp": "2025-12-23T18:59:32.239697+00:00", "meta": {"OBJECT_NAME": "FENGYUN 1C DEB", "OBJECT_ID": "1999-025EM", "EPOCH": "2025-12-22T18:56:57.055200", "MEAN_MOTION": 14.285748, "ECCENTRICITY": 0.01916239, "INCLINATION": 99.0369, "RA_OF_ASC_NODE": 195.4964, "ARG_OF_PERICENTER": 261.5136, "MEAN_ANOMALY": 159.4619, "EPHEMERIS_TYPE": 0, "CLASSIFICATION_TYPE": "U", "NORAD_CAT_ID": 29843, "ELEMENT_SET_NO": 999, "REV_AT_EPOCH": 98425, "BSTAR": 0.0001952408, "MEAN_MOTION_DOT": 5.42e-06, "MEAN_MOTION_DDOT": 0}, "tle": {"line1": "1 29843U 99025EM  25356.78954925  .00000542  00000+0  19524-3 0  9995", "line2": "2 29843  99.0369 195.4964 0191623 261.5136 159.4619 14.28574800984250"}}, "geometry": {"type": "Point", "coordinates": [18.430890945251974, 11.748494636116813]}}, {"type": "Feature", "properties": {"norad_id": 29844, "name": "FENGYUN 1C DEB", "group": "fengyun-1c-debris", "lat": -12.051370024628735, "lon": -98.60666328942051, "alt_km": 889.9108814750316, "timestamp": "2025-12-23T18:59:32.239707+00:00", "meta": {"OBJECT_NAME": "FENGYUN 1C DEB", "OBJECT_ID": "1999-025EN", "EPOCH": "2025-12-21T11:42:41.100480", "MEAN_MOTION": 14.32002675, "ECCENTRICITY": 0.01684801, "INCLINATION": 98.937, "RA_OF_ASC_NODE": 257.0954, "ARG_OF_PERICENTER": 141.5572, "MEAN_ANOMALY": 219.7755, "EPHEMERIS_TYPE": 0, "CLASSIFICATION_TYPE": "U", "NORAD_CAT_ID": 29844, "ELEMENT_SET_NO": 999, "REV_AT_EPOCH": 98466, "BSTAR": 0.00030492965, "MEAN_MOTION_DOT": 9.07e-06, "MEAN_MOTION_DDOT": 0}, "tle": {"line1": "1 29844U 99025EN  25355.48797570  .00000907  00000+0  30493-3 0  9996", "line2": "2 29844  98.9370 257.0954 0168480 141.5572 219.7755 14.32002675984668"}}, "geometry": {"type": "Point", "coordinates": [-98.60666328942051, -12.051370024628735]}}, {"type": "Feature", "properties": {"norad_id": 29845, "name": "FENGYUN 1C DEB", "group": "fengyun-1c-debris", "lat": 20.287913054712636, "lon": -5.336078400954438, "alt_km": 791.7843966046348, "timestamp": "2025-12-23T18:59:32.239716+00:00", "meta": {"OBJECT_NAME": "FENGYUN 1C DEB", "OBJECT_ID": "1999-025EP", "EPOCH": "2025-12-23T05:42:41.117760", "MEAN_MOTION": 14.26509796, "ECCENTRICITY": 0.00781425, "INCLINATION": 98.522, "RA_OF_ASC_NODE": 357.3027, "ARG_OF_PERICENTER": 100.7622, "MEAN_ANOMALY": 320.5715, "EPHEMERIS_TYPE": 0, "CLASSIFICATION_TYPE": "U", "NORAD_CAT_ID": 29845, "ELEMENT_SET_NO": 999, "REV_AT_EPOCH": 98259, "BSTAR": 0.00047090954, "MEAN_MOTION_DOT": 1.13e-05, "MEAN_MOTION_DDOT": 0}, "tle": {"line1": "1 29845U 99025EP  25357.23797590  .00001130  00000+0  47091-3 0  9995", "line2": "2 29845  98.5220 357.3027 0078142 100.7622 320.5715 14.26509796982598"}}, "geometry": {"type": "Point", "coordinates": [-5.336078400954438, 20.287913054712636]}}, {"type": "Feature", "properties": {"norad_id": 29846, "name": "FENGYUN 1C DEB", "group": "fengyun-1c-debris", "lat": 61.0612721714852, "lon": -124.66006093073233, "alt_km": 876.7943922586555, "timestamp": "2025-12-23T18:59:32.239726+00:00", "meta": {"OBJECT_NAME": "FENGYUN 1C DEB", "OBJECT_ID": "1999-025EQ", "EPOCH": "2025-12-23T01:48:34.526304", "MEAN_MOTION": 14.1909859, "ECCENTRICITY": 0.00837599, "INCLINATION": 98.6536, "RA_OF_ASC_NODE": 38.6531, "ARG_OF_PERICENTER": 274.1557, "MEAN_ANOMALY": 148.4028, "EPHEMERIS_TYPE": 0, "CLASSIFICATION_TYPE": "U", "NORAD_CAT_ID": 29846, "ELEMENT_SET_NO": 999, "REV_AT_EPOCH": 98006, "BSTAR": 0.0001372916, "MEAN_MOTION_DOT": 2.53e-06, "MEAN_MOTION_DDOT": 0}, "tle": {"line1": "1 29846U 99025EQ  25357.07539961  .00000253  00000+0  13729-3 0  9990", "line2": "2 29846  98.6536  38.6531 0083759 274.1557 148.4028 14.19098590980063"}}, "geometry": {"type": "Point", "coordinates": [-124.66006093073233, 61.0612721714852]}}, {"type": "Feature", "properties": {"norad_id": 29847, "name": "FENGYUN 1C DEB", "group": "fengyun-1c-debris", "lat": 80.15858611698597, "lon": -71.1820542300901, "alt_km": 862.2570492150153, "timestamp": "2025-12-23T18:59:32.239735+00:00", "meta": {"OBJECT_NAME": "FENGYUN 1C DEB", "OBJECT_ID": "1999-025ER", "EPOCH": "2025-12-22T10:48:43.652736", "MEAN_MOTION": 14.03009384, "ECCENTRICITY": 0.00848154, "INCLINATION": 98.9036, "RA_OF_ASC_NODE": 352.1472, "ARG_OF_PERICENTER": 11.922, "MEAN_ANOMALY": 144.3093, "EPHEMERIS_TYPE": 0, "CLASSIFICATION_TYPE": "U", "NORAD_CAT_ID": 29847, "ELEMENT_SET_NO": 999, "REV_AT_EPOCH": 96871, "BSTAR": 0.0003804221, "MEAN_MOTION_DOT": 5.66e-06, "MEAN_MOTION_DDOT": 0}, "tle": {"line1": "1 29847U 99025ER  25356.45050524  .00000566  00000+0  38042-3 0  9997", "line2": "2 29847  98.9036 352.1472 0084815  11.9220 144.3093 14.03009384968719"}}, "geometry": {"type": "Point", "coordinates": [-71.1820542300901, 80.15858611698597]}}, {"type": "Feature", "properties": {"norad_id": 29848, "name": "FENGYUN 1C DEB", "group": "fengyun-1c-debris", "lat": -47.06816032761682, "lon": 34.68694289042518, "alt_km": 761.2278810553717, "timestamp": "2025-12-23T18:59:32.239744+00:00", "meta": {"OBJECT_NAME": "FENGYUN 1C DEB", "OBJECT_ID": "1999-025ES", "EPOCH": "2025-12-22T05:20:08.134368", "MEAN_MOTION": 14.20618372, "ECCENTRICITY": 0.01164478, "INCLINATION": 98.2483, "RA_OF_ASC_NODE": 222.1927, "ARG_OF_PERICENTER": 267.5043, "MEAN_ANOMALY": 221.0837, "EPHEMERIS_TYPE": 0, "CLASSIFICATION_TYPE": "U", "NORAD_CAT_ID": 29848, "ELEMENT_SET_NO": 999, "REV_AT_EPOCH": 97252, "BSTAR": 0.0011985754, "MEAN_MOTION_DOT": 2.721e-05, "MEAN_MOTION_DDOT": 0}, "tle": {"line1": "1 29848U 99025ES  25356.22231637  .00002721  00000+0  11986-2 0  9991", "line2": "2 29848  98.2483 222.1927 0116447 267.5043 221.0837 14.20618372972524"}}, "geometry": {"type": "Point", "coordinates": [34.68694289042518, -47.06816032761682]}}, {"type": "Feature", "properties": {"norad_id": 29849, "name": "FENGYUN 1C DEB", "group": "fengyun-1c-debris", "lat": 7.50177417620417, "lon": -96.71235212690893, "alt_km": 932.7043929614811, "timestamp": "2025-12-23T18:59:32.239754+00:00", "meta": {"OBJECT_NAME": "FENGYUN 1C DEB", "OBJECT_ID": "1999-025ET", "EPOCH": "2025-12-23T04:38:33.547776", "MEAN_MOTION": 14.04920101, "ECCENTRICITY": 0.00799873, "INCLINATION": 99.0103, "RA_OF_ASC_NODE": 81.4968, "ARG_OF_PERICENTER": 15.1675, "MEAN_ANOMALY": 14.4384, "EPHEMERIS_TYPE": 0, "CLASSIFICATION_TYPE": "U", "NORAD_CAT_ID": 29849, "ELEMENT_SET_NO": 999, "REV_AT_EPOCH": 96517, "BSTAR": 0.00084464976, "MEAN_MOTION_DOT": 1.353e-05, "MEAN_MOTION_DDOT": 0}, "tle": {"line1": "1 29849U 99025ET  25357.19344384  .00001353  00000+0  84465-3 0  9996", "line2": "2 29849  99.0103  81.4968 0079987  15.1675  14.4384 14.04920101965171"}}, "geometry": {"type": "Point", "coordinates": [-96.71235212690893, 7.50177417620417]}}, {"type": "Feature", "properties": {"norad_id": 29850, "name": "FENGYUN 1C DEB", "group": "fengyun-1c-debris", "lat": -81.75879241629382, "lon": 3.737030441004726, "alt_km": 829.2898945178767, "timestamp": "2025-12-23T18:59:32.239764+00:00", "meta": {"OBJECT_NAME": "FENGYUN 1C DEB", "OBJECT_ID": "1999-025EU", "EPOCH": "2025-12-23T06:25:46.634304", "MEAN_MOTION": 13.99893868, "ECCENTRICITY": 0.01018829, "INCLINATION": 98.1255, "RA_OF_ASC_NODE": 282.7374, "ARG_OF_PERICENTER": 259.7504, "MEAN_ANOMALY": 254.8622, "EPHEMERIS_TYPE": 0, "CLASSIFICATION_TYPE": "U", "NORAD_CAT_ID": 29850, "ELEMENT_SET_NO": 999, "REV_AT_EPOCH": 96167, "BSTAR": 0.00096789099, "MEAN_MOTION_DOT": 1.448e-05, "MEAN_MOTION_DDOT": 0}, "tle": {"line1": "1 29850U 99025EU  25357.26790086  .00001448  00000+0  96789-3 0  9997", "line2": "2 29850  98.1255 282.7374 0101882 259.7504 254.8622 13.99893868961673"}}, "geometry": {"type": "Point", "coordinates": [3.737030441004726, -81.75879241629382]}}, {"type": "Feature", "properties": {"norad_id": 29851, "name": "FENGYUN 1C DEB", "group": "fengyun-1c-debris", "lat": -63.704406023099224, "lon": 58.91567268717814, "alt_km": 968.3280325740388, "timestamp": "2025-12-23T18:59:32.239773+00:00", "meta": {"OBJECT_NAME": "FENGYUN 1C DEB", "OBJECT_ID": "1999-025EV", "EPOCH": "2025-12-23T02:05:53.170944", "MEAN_MOTION": 13.83607805, "ECCENTRICITY": 0.0142443, "INCLINATION": 99.5829, "RA_OF_ASC_NODE": 38.2072, "ARG_OF_PERICENTER": 200.1609, "MEAN_ANOMALY": 188.4869, "EPHEMERIS_TYPE": 0, "CLASSIFICATION_TYPE": "U", "NORAD_CAT_ID": 29851, "ELEMENT_SET_NO": 999, "REV_AT_EPOCH": 95510, "BSTAR": 0.00035097596, "MEAN_MOTION_DOT": 3.72e-06, "MEAN_MOTION_DDOT": 0}, "tle": {"line1": "1 29851U 99025EV  25357.08742096  .00000372  00000+0  35098-3 0  9997", "line2": "2 29851  99.5829  38.2072 0142443 200.1609 188.4869 13.83607805955102"}}, "geometry": {"type": "Point", "coordinates": [58.91567268717814, -63.704406023099224]}}, {"type": "Feature", "properties": {"norad_id": 29852, "name": "FENGYUN 1C DEB", "group": "fengyun-1c-debris", "lat": -22.05286888254302, "lon": 11.813703492899956, "alt_km": 950.7988286383052, "timestamp": "2025-12-23T18:59:32.239782+00:00", "meta": {"OBJECT_NAME": "FENGYUN 1C DEB", "OBJECT_ID": "1999-025EW", "EPOCH": "2025-12-22T11:26:45.978720", "MEAN_MOTION": 14.07123774, "ECCENTRICITY": 0.01350187, "INCLINATION": 99.3705, "RA_OF_ASC_NODE": 6.6162, "ARG_OF_PERICENTER": 123.118, "MEAN_ANOMALY": 40.7988, "EPHEMERIS_TYPE": 0, "CLASSIFICATION_TYPE": "U", "NORAD_CAT_ID": 29852, "ELEMENT_SET_NO": 999, "REV_AT_EPOCH": 96121, "BSTAR": 0.0016065328, "MEAN_MOTION_DOT": 2.875e-05, "MEAN_MOTION_DDOT": 0}, "tle": {"line1": "1 29852U 99025EW  25356.47692105  .00002875  00000+0  16065-2 0  9997", "line2": "2 29852  99.3705   6.6162 0135018 123.1180  40.7988 14.07123774961217"}}, "geometry": {"type": "Point", "coordinates": [11.813703492899956, -22.05286888254302]}}]}